[{"OBJECT_NAME":"STARLINK-31622","OBJECT_ID":"2024-068B","EPOCH":"2026-03-09T21:47:27.244608","MEAN_MOTION":15.2756356,"ECCENTRICITY":7.269e-5,"INCLINATION":42.9976,"RA_OF_ASC_NODE":33.4981,"ARG_OF_PERICENTER":257.1263,"MEAN_ANOMALY":102.9507,"EPHEMERIS_TYPE":0,"CLASSIFICATION_TYPE":"U","NORAD_CAT_ID":59456,"ELEMENT_SET_NO":999,"REV_AT_EPOCH":10855,"BSTAR":0.00029825158,"MEAN_MOTION_DOT":7.95e-5,"MEAN_MOTION_DDOT":0},{"OBJECT_NAME":"POEM","OBJECT_ID":"2022-072E","EPOCH":"2026-03-08T08:06:01.299456","MEAN_MOTION":15.22764653,"ECCENTRICITY":0.00236837,"INCLINATION":9.9515,"RA_OF_ASC_NODE":116.6548,"ARG_OF_PERICENTER":142.2805,"MEAN_ANOMALY":217.9074,"EPHEMERIS_TYPE":0,"CLASSIFICATION_TYPE":"U","NORAD_CAT_ID":52939,"ELEMENT_SET_NO":999,"REV_AT_EPOCH":20410,"BSTAR":0.00045784559,"MEAN_MOTION_DOT":0.00012084,"MEAN_MOTION_DDOT":0}]
